[
    {
        "Altitude(m)": 715016.7036468503,
        "Argument of Periapsis(deg)": 0.011390121186627068,
        "Eccentricity": 0.0,
        "Inclination(deg)": 45.0,
        "Latitude(deg)": -38.216004735131875,
        "Longitude(deg)": 95.77631170517412,
        "Mean Anomaly(deg)": -119.37588335251921,
        "RAAN(deg)": 324.98924805854176,
        "Satellite Name": "Constellation 1 1444",
        "Satellite Number": 1444,
        "Semi-Major Axis(m)": 7083131.272910544,
        "Time(s)": 190
    },
    {
        "Altitude(m)": 715027.7017080119,
        "Argument of Periapsis(deg)": 0.011450069192872472,
        "Eccentricity": 0.0,
        "Inclination(deg)": 45.0,
        "Latitude(deg)": -38.24269389631744,
        "Longitude(deg)": 95.84131210620299,
        "Mean Anomaly(deg)": -119.31518221226924,
        "RAAN(deg)": 324.9891914693762,
        "Satellite Name": "Constellation 1 1444",
        "Satellite Number": 1444,
        "Semi-Major Axis(m)": 7083131.272910544,
        "Time(s)": 191
    },
    {
        "Altitude(m)": 715038.6838303457,
        "Argument of Periapsis(deg)": 0.01151001719911788,
        "Eccentricity": 0.0,
        "Inclination(deg)": 45.0,
        "Latitude(deg)": -38.26934218386813,
        "Longitude(deg)": 95.90636287736956,
        "Mean Anomaly(deg)": -119.25448107201929,
        "RAAN(deg)": 324.98913488021066,
        "Satellite Name": "Constellation 1 1444",
        "Satellite Number": 1444,
        "Semi-Major Axis(m)": 7083131.272910544,
        "Time(s)": 192
    },
    {
        "Altitude(m)": 715049.6499739694,
        "Argument of Periapsis(deg)": 0.011569965205363285,
        "Eccentricity": 0.0,
        "Inclination(deg)": 45.0,
        "Latitude(deg)": -38.29594952996008,
        "Longitude(deg)": 95.97146385841542,
        "Mean Anomaly(deg)": -119.19377993176955,
        "RAAN(deg)": 324.9890782910451,
        "Satellite Name": "Constellation 1 1444",
        "Satellite Number": 1444,
        "Semi-Major Axis(m)": 7083131.272910544,
        "Time(s)": 193
    },
    {
        "Altitude(m)": 715060.6000990578,
        "Argument of Periapsis(deg)": 0.01162991321160869,
        "Eccentricity": 0.0,
        "Inclination(deg)": 45.0,
        "Latitude(deg)": -38.3225158667409,
        "Longitude(deg)": 96.03661539302095,
        "Mean Anomaly(deg)": -119.13307879151958,
        "RAAN(deg)": 324.98902170187955,
        "Satellite Name": "Constellation 1 1444",
        "Satellite Number": 1444,
        "Semi-Major Axis(m)": 7083131.272910544,
        "Time(s)": 194
    },
    {
        "Altitude(m)": 715071.5341658465,
        "Argument of Periapsis(deg)": 0.011689861217854095,
        "Eccentricity": 0.0,
        "Inclination(deg)": 45.0,
        "Latitude(deg)": -38.349041126329425,
        "Longitude(deg)": 96.10181732022119,
        "Mean Anomaly(deg)": -119.07237765126959,
        "RAAN(deg)": 324.9889651127139,
        "Satellite Name": "Constellation 1 1444",
        "Satellite Number": 1444,
        "Semi-Major Axis(m)": 7083131.272910544,
        "Time(s)": 195
    },
    {
        "Altitude(m)": 715082.4521346156,
        "Argument of Periapsis(deg)": 0.0117498092240995,
        "Eccentricity": 0.0,
        "Inclination(deg)": 45.0,
        "Latitude(deg)": -38.37552524081652,
        "Longitude(deg)": 96.16706964679264,
        "Mean Anomaly(deg)": -119.01167651101973,
        "RAAN(deg)": 324.98890852354833,
        "Satellite Name": "Constellation 1 1444",
        "Satellite Number": 1444,
        "Semi-Major Axis(m)": 7083131.272910544,
        "Time(s)": 196
    },
    {
        "Altitude(m)": 715093.3539657091,
        "Argument of Periapsis(deg)": 0.011809757230344905,
        "Eccentricity": 0.0,
        "Inclination(deg)": 45.0,
        "Latitude(deg)": -38.4019681422656,
        "Longitude(deg)": 96.23237237915511,
        "Mean Anomaly(deg)": -118.9509753707699,
        "RAAN(deg)": 324.9888519343828,
        "Satellite Name": "Constellation 1 1444",
        "Satellite Number": 1444,
        "Semi-Major Axis(m)": 7083131.272910544,
        "Time(s)": 197
    },
    {
        "Altitude(m)": 715104.2396195227,
        "Argument of Periapsis(deg)": 0.011869705236590313,
        "Eccentricity": 0.0,
        "Inclination(deg)": 45.0,
        "Latitude(deg)": -38.4283697627129,
        "Longitude(deg)": 96.29772552337009,
        "Mean Anomaly(deg)": -118.89027423051992,
        "RAAN(deg)": 324.9887953452172,
        "Satellite Name": "Constellation 1 1444",
        "Satellite Number": 1444,
        "Semi-Major Axis(m)": 7083131.272910544,
        "Time(s)": 198
    },
    {
        "Altitude(m)": 715115.1090565063,
        "Argument of Periapsis(deg)": 0.011929653242835719,
        "Eccentricity": 0.0,
        "Inclination(deg)": 45.0,
        "Latitude(deg)": -38.454730034167994,
        "Longitude(deg)": 96.36312908513901,
        "Mean Anomaly(deg)": -118.82957309026999,
        "RAAN(deg)": 324.98873875605165,
        "Satellite Name": "Constellation 1 1444",
        "Satellite Number": 1444,
        "Semi-Major Axis(m)": 7083131.272910544,
        "Time(s)": 199
    }
]